PK_LOCALIDADE;region_name;region_code;city;country;state;zip_code
138aefa9c9e11d89c2ec4ca8999583c759089eaeb7ff1fb98e3c051e9d405b32;Central;4;Hazelwood;US;MO;63042
ef81351d7b6abaf6551f91e72bbd571d6f244352b331b74120ba7830a539c50d;Central;4;Wayne;US;MI;48184
98a0d6abc9144ec220ba5f0c1e4c857b443a2d1e2115b6756ef9c83c8eae178e;Western;1;Tigard;US;OR;97223
d1e5e68611e518eaec70ed26d6bae1505cda81cf9a7a8e8ecebdda662d11724e;Canada;0;Prince George;CA;BC;V2N 1V6
20edfd66f1d811aa1ce7212b388c40a6f235ec49a1e28dc7e75ae218a6820bd5;Western;1;North Highlands;US;CA;95660
18bab7614334163bfa76da9250c7d78c14348149408f9ad64cfafbfa3118e8ce;Central;4;Livonia;US;MI;48151
43b5ba4742dc30ad7ffa1f708e288b33963cf0c9e411b40fd4d73ad48a3306f1;Canada;0;Toronto;CA;ON;M3J 2E5
3dec213c34900473a15711746559dd6f00f443f6de78a86a1c76e6c52f12afb0;International;5;Schiphol-Rijk;IR;Não informado;0
f1dcf887e828fb4c4e2e10e01e042ebc49f31b0953bd87f95d90ad904f11950a;International;5;SE-132 28 Saltsjo-Boo;AU;Não informado;0
5f31baa8a1d7f1eb13ea71353f51c1eb33918074302f7d7292d31ea2977de52d;Central;4;New Hampton;US;IA;50659
acb2b2331c0d35546130bdea158efab2773cbe7657df34ea9720a4fb5d058bf9;Southern;2;Springhill;US;LA;71075
13cb71f9c35daf1d0676621bc30f5d839ef04a3ccce75710d8536ec16c1178c7;Central;4;Dearborn;US;MI;48121
6186e7f17ddb59539cd7c295b5e9d1f2bf2b097d7fda54a4a8ff85e7f6c15bbc;International;5;Kanagawa;AU;Não informado;249-0008
39449b8336b4c82066861c355f12ff252eb57afe0d86dd0f68ec8eda810b69c4;Canada;0;Edmonton;CA;AB;T6E 4N6
9c934a6ddd27d5bf401e880e60a274c2151dae86e77b9895689e65d67cdcbca1;Central;4;Rapid City;US;SD;57709
efc7b4f8e28cee3a06bf03930c776cb1ff506a1dbea29769a8f9a410eedcdb0e;Western;1;Salt Lake City;US;UT;84115
af2cb808fa92ea1fdadeed3b8672369c7ef6e9df9ffee64d0fa6568e8efdc79b;Northeast;3;Medford;US;MA;2155
f263332eb1b0840ae1eed7850971be1ea36e6684f26623fcccdbdcb602964116;International;5;A 5102 Anthering;UK;Não informado;0
f1d384ce7da7d153c372157ba6d0f504411ce179435b45767a86bfcb05b15606;Western;1;Stockton;US;CA;95205
42869b3ef3d31440e079f79c6e8f32f2ec1765f452c531f9b82b6b445089cef3;International;5;Valencia;UK;Não informado;0
4de6187a09d1f0ad4155e212797cc406c8834099d14120f5bc3787da05d380f5;Central;4;Des Moines;US;IA;50316
670d81409e774a4c884b7fbc849b180e085f00aa763a7618526d908f9cc9f63c;Northeast;3;East Providence;US;RI;2914
cec936eaff6272c9dd346d13435fec9914e7d7999c69d011e7333f1c2a0881aa;Central;4;Bedford;US;OH;44146
eb8be23b1b0b555e5384bbd7d490efcb9041cff2c8be23c51a17480a6aa37d7a;Western;1;Medford;US;OR;97501
cd907ad644ed18591fd3281f724c964cf4ad287e9efbb7c3a0ab41a3f1de88af;Northeast;3;Pittsburgh;US;PA;15238
ef0697d9d4250c0f8d9236a359e4715b6d06939a1ad3358128556dba2d89f0be;Central;4;Highland;US;IL;62249
4ee60e1bf752784fa460f442d1b8920b2333ba4201cc6c17f22eb8f992fd25b6;Western;1;Van Nuys;US;CA;91406
13a758c9f47c6a59bb8ba11f7833b23993362de55e11af66521770a94d7bbf7d;International;5;2215 TC Voorhout;IR;Não informado;0
50e00dceb8474a63e0ba56399c61590414ed503d9d9a5e80a498a0ee5e2331b2;Southern;2;Creedmoor;US;NC;27522
01f5e192e018205cadb7eda4303f52d11cfdc110036b25a162c0ac3d422a5506;Western;1;Phoenix;US;AZ;85036-1502
a7f7ad324e5cb9077d483db7e45e74386610182914b1881f1f9ba43930035f39;Central;4;Depere;US;WI;54115
2200df3505b16074411e5d30b86493e67a5fd2f4d18e278bee97ad3a1eae390e;Canada;0;Saskatoon;CA;SK;S7K 3S4
c1b61947f05b7a10bc0d752b60f0de176426f1cee13e56286f11d60d4a2a2c6b;Northeast;3;Philadelphia;US;PA;19132
d3ab218b013fa4c342662256249909363ced298cf75ebeaaf4353203b7e9ad4c;International;5;Santa Cruz;UK;Não informado;0
708d65b7bcf0bec8af9389e322d830177736405a20e6fd12d79f0b7f9920baf6;Central;4;Andover;US;SD;57422-8811
b130aa4686b49183154acbe2b61d9073b6138c32d9ebe219e1d6298e507bb711;Southern;2;Charlotte;US;NC;28236
0623704a74ca97edd42f5b737e7e0bf89a26e8802a666d6e3798cde4b47bf48d;Southern;2;Buda;US;TX;78610
e75ea36fe137b4e3201470e2cb5af493ce400208ad3546a504c9d98d4f46758d;Southern;2;Memphis;US;TN;38133
d78e022b877f9aa98a6f88b4f0800eaa02a1dbf3a522e6592004d74d64972f80;Western;1;Corona;US;CA;91720
a3a502608cd0a7eed6dba7a94ab24bffdf15da98bef3fa075084b9289f1027ba;Central;4;Indianopolis;US;IN;46222
407778e47f95bff7832fff071dea38862f5d7e0440f0e55b12b0a881e0a3b25f;Canada;0;Boucherville;CA;QU;J4B 2X3
483087eda8c9aac66678e0919b76544e100c63bd923cb53dff6f2311c7157476;Central;4;Warren;US;MI;48091-2991
53592e5b2759bb3b0971a2d4f63543777d86ef8de71c0b1439e67af0e5e9428b;Southern;2;Lake Hamilton;US;FL;33851
cdb00af7ed74ff4df77f9f8502b04f76f6703d2041523522810e0e730e741fde;Central;4;Hamel;US;MN;55340-0700
371561af32e1ee20f22399366fbded5f0d5bc8fba07e628724354949ecf74106;Southern;2;Holden;US;LA;70744
404dbab45ad912359a1016362b33544c813c6bb45ec834c6d2517bb16c42261c;Southern;2;Tulsa;US;OK;74101-3445
ff6582f57d3e133e3093b9ec1433d1efc102c29f8f6a6c17fdf248b79ce92d49;Northeast;3;Buffalo;US;NY;14206
9ea61030ca4050c9001b45056f4b6ec2fab314813d3bbfd526a2cb74332eb7b3;Northeast;3;Elma;US;NY;14059
cbe4f5253585982bcbab1946aad10c9c4e2d5aac9642c1b5415ffefd91cbe9b3;Western;1;Fresno;US;CA;93725
20b9dcb372416ae0b30a3c50908b60a8129f2c95f091c5c2461c86b91d21bf59;International;5;Beirut;AU;Não informado;0
f5fe1da4225b0aacd6b3273b129ea28144acf3e78978372ec26b411ea1824315;Western;1;Sparks;US;NV;89431
2bdaf1b45e28d30f01e32edfccb6bd4e89b5867410c7605cb7b6b1be65ae4e5b;Central;4;Traverse City;US;MI;49685
ace0904ba748f4cd395547c7b64095baa3f8b0dace5478ca7404918906fd4825;Western;1;Costa Mesa;US;CA;92626-5555
c196b26c2e38ea506bf702c88211bb833835dc05620b327d798bcf7c249fe271;Central;4;Appleton;US;WI;54913
241648d12e2872bdeeea3960b809bbff4c874b3e3d80abe02902a4db08e73386;Southern;2;Jasper;US;TX;75951
14422a46f077c60c159b006ea1aa5b1b556f4b78ee0ee5d1e34d740d407fc116;Western;1;Breckenridge;US;CO;80424
b0d97039668358ce64272f2832f534de4151dba8b6a50710d8bcdc1e7fb58394;Southern;2;Calhoun;US;LA;71225-0547
5e145a509aef3411ec7bb53038fcd7c129210c31d485156c59848426049182b8;Western;1;Boise;US;ID;83716
92338bf9f975494a3a38169bc1700c27dfd6dd0d8dc7fa1407ad93e442ef0d0e;Southern;2;Whitehouse;US;TN;37188
dd545ee4a15334d0c759feb78e1399cd6775d0e44476f45ce6aec8f0ec889002;Southern;2;Villa Rica;US;GA;30180-0266
a337afedc62cf0ddd13d5935cd71abb23bd0174f0487c3d27154f282d9c9645a;International;5;Ruwi;IR;Não informado;0
d6303558826647cf5200ea62f53cd3a7f5d2e0ecd7764435cff6ff9e75a9a0d7;Central;4;Springfield;US;MO;65898
4d918a9c932281a357627798d70e3f787466eacfe92bd665af2691bef78f5d4c;Northeast;3;Vinton;US;VA;24179
c0ad651de47f6f362bc9d31d96dc91f6d0069dfd1f2314d4824fa512c7ac4d24;Canada;0;Edmonton;CA;AB;T6B 0A8
623cb49b8e788c116bc61289ae4fe15870f08f917244aa3ecdce85c271a59547;International;5;Panama Rep De Panama;IR;Não informado;0
7b71134905722eaceb321f41a6add5cfd395742fa86ed68bf2c48ab87b3138db;Central;4;Marshfield;US;WI;54449
52f2db812dfe09dd335266de4e964b20116fb0465e12cce762c6d57e459f8e88;Western;1;Clackamas;US;OR;97015-9733
643c22a0774e31c37a3500c9cf9a5178a03ca2a5215ab1e6790f81cb3aab62b1;Southern;2;Tulsa;US;OK;74116
e075fc58c524ca71d0174830347863a8a431241be762fa5f02e9057b1c172ced;Western;1;Portland;US;OR;97208-3591
d4a7f3f917962c0171aabc5286966071fd6ae48d6e3ac2e15c0b50ff9e090585;Canada;0;Winnipeg;CA;MB;R3C 2W7
447c25c18b210a6f0850f65475b2f0b7ed60da480d9e0d4ff7ce75409558032f;Northeast;3;Fredericksburg;US;VA;22405
d5bac484d32dd5020d224bbf3d432705b14600bc70c484f9bb35afe5ffcc7a6d;Western;1;Compton;US;CA;90220
47f585d4e073e6460cd6e26092af9c8eb252e5b286ed538e1349528d2f049225;Southern;2;Tampa;US;FL;33619
8c7160317d8450e773735d5c2b88cf307f64b9e7df50b668d70a833cf8fa24c0;Central;4;Columbus;US;OH;43216
009b1abb2ed838b028be88a93fa8916e8b885222ccfdcb0a5c8ab09d6a265d43;Southern;2;Jacksonville;US;FL;32236
3f41fbf992f906e93c5135a5425243b4d8b55100abba5e81922ea1b5a979eadf;Western;1;Redding;US;CA;96002
78a17b0a3ef61f51e98aed78bf827173e59d08954529de2fa6a95c0fc8a07c5b;Central;4;New Castle;US;IN;47362
88d53a33f9397fdaa9a431fff4a6b0f592979f681c42caf33ce5197677421df8;Canada;0;Montreal;CA;QU;H3S 2T4
06aabc0d62727557b4466b92b2bd8f2c8b306f633e8ba935cb429f3c0b5848a5;Southern;2;North Little Rock;US;AR;72113
87f954e6f2b251dcdb5d87052cf923f89a9d8b5f26cc48d3733a67242dc35210;Western;1;Bozeman;US;MT;59715
93a4a101f458be9592eb58f16f26ead27d4a0bb7a0eb523a2fac87ffb5a6db8e;International;5;San Jose;UK;Não informado;0
ae35e2b1f7962f01fe6a194454ae6d68769d99ceee4872dbcc6cc4578f367102;Western;1;Rancho Cordova;US;CA;95742
0be21c681fdac1cecfb89f481cb0a8e807f510b595aec54d0be9ff1cd31f62ea;Central;4;Crestwood;US;IL;60445-2205
28ae931fe65ed45a1d2cc63c6db93ead811485fd0be1f2f2fe51f04a499ceb9e;Central;4;Watervliet;US;MI;49098
8f88a0bc492c851fea63cc7a6851eeebee44c2f815d7a65bf4106178056d99b1;International;5;Songtan SI;AU;Não informado;459-050
34947ac3d73b785181f96b8378715bb6e1a279606a1d949e35eb055b551b15ab;Western;1;Rancho Cordova;US;CA;95742-7316
afe3c513746432ccfe76be83c553c475bcefd690ccf496de37cfe8f4f9238669;Central;4;Milwaukie;US;WI;53225
e0cb07c57676f067f5aa9d1c67fdae9c8894a6cd366717474b4a3edadf9109b1;Southern;2;Birmingham;US;AL;35244
b7dc96346bc49f5e77559f95a96314694597b6d9fb2f64b4f6318b917965f629;Western;1;Tumwater;US;WA;98512
e2d680314406b0b50b1f1b9d9cbd2d61578dcebabdcc768a36ad8ad08ed4de7a;Western;1;San Marcos;US;CA;92069
cb7f96192cc9024af75c0599fd6aa025b720434582202fc0d88ef6fbe2b3ad13;Western;1;Sacramento;US;CA;95851-1297
749c70a950a5a0434c322dcf643c3c7d4c3bcae4f1ef0eac3da914809e38da3a;International;5;Asuncion;UK;Não informado;33126-1214
008fdd966e9e62dfcbf95abece0d9eba596e8d9973387acb91e849c05aa63323;International;5;1980 Santiago;UK;Não informado;0
280b889cb3920896e461ccaad5b4e6685e1019151da7f58b7339b9a84366598d;International;5;Linares (Jaen);UK;Não informado;23700
ef0d46f422920a431eb5abf7c6bc840bb52ca4215e732bdc38500dad8d8c34d1;Western;1;Portland;US;OR;97294
9224ae1ed1ac6d11bbaba0fabd4df74029c8b9760f99304c3964c4ee44d16869;Central;4;Indianapolis;US;IN;46227
57365769831494d281c1bcb11afcaa0037f5240c81bdcc8d2c74337f4016597b;Canada;0;Surrey;CA;BC;V35-6J8
7fca12195547c422ea40952360ee203890334e322380e6e2c1df254f59b502a8;Central;4;Wooster;US;OH;44691
f7a0702f607a1272985873a4de9627d0e20d0eb3fa8d757220778b6692f35090;Western;1;Enumclaw;US;WA;98022
74527c8ac50cba2dfe877a580ca03cff7954b70fd1ec11a7f748a2f47e489e77;Southern;2;Baton Rouge;US;LA;70815
57b1ba94190db4628f2e3570525b5b0db90df6f03cda50c61fdd79a955d350cb;Canada;0;Calgary;CA;AB;T2E 6Z2
b7a0e55cab8f126adc6435e2ffcb618743f4b8c65b65127d2071bd27b242ff26;Central;4;Thief River Falls;US;MN;56701
3881ec1fbf1bec88ee015e24c13817be53fb0f009e25f7e6873dff5f66b02590;Central;4;Dover;US;OH;44622
e3761527d19d48e33585d136439231bc6a900d42667e42d626a1b829d85ea511;Southern;2;Cleveland;US;TX;77327
cc937cda289eab555d2299c20a39d8317cb990a51a96a34d7508ae722b81aa89;Western;1;Eugene;US;OR;97402-3519
b927c65fb7bca2dc80c6e4371807d67da1a6abbe9b3f2bb5dace2b133be3350b;Northeast;3;Wells;US;ME;4090
2ceefc22a2c6ce0e2a7373de9d5f56fb36ed208acb46b134c37aacdbcedea36b;International;5;Sao Paulo;UK;Não informado;5052
7b074351217653e03e6585243e1791834d67cf44c711af4d912f4d057b2eb99b;Central;4;Sioux Center;US;IA;51250
6014c64bdfa5b8c1ba33be6caed56d7d02bfac146731dc0dfe76e00cea1bd372;Western;1;Colorado Springs;US;CO;80907
585086ba706ed7b5ec141b5528aec14550c7067214bd5e37b63a58b05b141584;Western;1;Fresno;US;CA;93706
41a1216ef0d8eed3cf2715210a921a22bcd97a9184df4b988e395c3f84feec02;Western;1;Portland;US;OR;97217
7a9009c3b3895b535e1ec4ac588e4724f48343bac108ce39614590c136394bf7;Central;4;Shawano;US;WI;54166
ed9b3a940f9a63bf22c0d9c1ed2b32e669e05c7426904d28e2a49ab32ccf27b1;International;5;Seoul;AU;Não informado;135-260
415a041ce4a72ed30f580da0d53931d7bbd77d986f14f5451b584ebbfbaf8a34;Western;1;Hayward;US;CA;94540
db3ca822664ead22ee25cae952579ae036e1aebccacf77c0527a44c8d12d3f7d;International;5;Bogota;UK;Não informado;0
0686a0ba9dd2c046003e18f1c2bed7c693886e854b52806cf186137b30350f42;Southern;2;Chattanooga;US;TN;37407
8ab1bc1e3ff44a60c8e744489f5bbbe5f9aedfe5f417cca9186a0328516362ed;Southern;2;Greenville;US;SC;29605
95854519659e2345fb7a1d3c524be834f33e4792f0db62d2ee8886cf07d7e982;Central;4;Raleigh;US;IL;62977-0068
c5cde48a442d4d4be2f04da90fbb9465f34386fc4c9a97fc1a40d3c2b7e166cc;Northeast;3;Petersburg;US;VA;23803
604f24adc6994893f372631e5bb7be4040af97eb746e85229fa96f47ae3dcf4a;International;5;4100 Porto;UK;Não informado;0
673a449587677939d9aa9bbcff17b31fb9ac9b8c813340f4f4939d97757c697e;Southern;2;Shelby;US;NC;28152
a6b49670989ed0481f7ce613c542c9abf1f26d7c024fd2699b0c295d168f160c;International;5;EE 0026 Tallinn;UK;Não informado;0
ed6545383e870530fde886f09fc9ebd954272c7973c149130401a9f6dd7f645d;Western;1;Anchorage;US;AK;99501
a6c63ec01ec81c76c720fb376db56e622d48ccb28cc51860244159c50118104e;Central;4;Pocahontas;US;IA;50574
9dfb0396a5bc679de6dc2f1664987f74ad16460e3be05d50b1da612f4e66f774;Southern;2;Meridian;US;MS;39307
7744f3ceae238932e393bfb88046a6f5a44e699f901e91318ca26265a390dd3e;Central;4;Fairmount;US;IN;46928
48361102d8765fe3029dce97ab2c82b2d98b3fc77ebdc4000845bb281c3ceba6;Central;4;Lennox;US;SD;57039
cfe4cbca401664cd02752e2464c91e4d9a442220a32d99c4b51eb63f36ae4e84;Northeast;3;Milesburg;US;PA;16853
71036e1bc076f5a251a366e0de869b7ee8e30a47a33f83c370742c77b990a44d;Northeast;3;Milton;US;PA;17847
6ea8d3817c15375a1eece218a82356b1ddc5167a44b2e9e92cda9e46441dad26;Southern;2;El Paso;US;TX;79915
668c56743d07950a30700e8d160dff8e2687ec27c08157ed0ed74ff11164142e;Southern;2;Amarillo;US;TX;79107
f26205076623bdd7bd011bdafc291331d33a82d4cefd203daf9db1227b3bd93c;Southern;2;Nashville;US;TN;37206
dfd24483826474d98bf2d26342cad7e33e68ff111f562d237ba9128d7a000adc;Central;4;South Bend;US;IN;46634-7005
2ff87c32417b7f23855db76c45740c0f482c73ff0b7424d517345bfbcff4d23e;International;5;Hamamatsu City;AU;Não informado;432-8611
4abdc27d93263635687d67c2a546f79180d7296cbcaebaf3d50eee1157ce1dc0;Southern;2;Statesville;US;NC;28625
c721ddcbe9a66e1027ca6bd3069e28f82152294da131ec1b54e1ca29f06c8e39;International;5;Guadalajara Jal Mexico;IR;Não informado;44530
7553e8d51e3eb4d06d7ee6beb2ed102e4e20f7deb917544edece414b1df3123e;Southern;2;Tampa;US;FL;33604
5945eed1f71a38dadb448236303e025e311fffa59e92f20d661253aafc742423;Central;4;Oslo;US;MN;56744
37718df49262d44acbe7d546da5c610a5e0bb534b90b4dc82646ca6215b171f6;Western;1;Phoenix;US;AZ;85034
78fe5f7361e1e70125f6433616977ac11dbcb5f4cf46c2d83aaf95e8b4dc3b7d;Northeast;3;Somerset;US;NJ;08873-6750
915e4e9ba6f6d2e802ef747c49781fdb7d02c885eb5aef702e6e79f7a9daa0c8;Canada;0;Winnipeg;CA;MB;R3C 3B3
36bccc620534df7e91227f450c6e0d1f6ec1f78c57f1c862ce59a5ade4b64b1c;Southern;2;Augusta;US;GA;30917-4658
76b621340bb175eba28dfea73a99031fda7aef0df1f57664a067b9bf41fb7e6b;Central;4;McHenry;US;IL;60050
86c5a294000fab89c89334e11a849e50eb6e3b13f7dd12d60a72ce9bba0a850e;Central;4;St Joseph;US;MO;64507-9799
f6fc5c7e7a04c5e27689fb892124422f65d75191b6f143e01d931be1ca78c609;Central;4;Cass City;US;MI;48726
fa65305df6b13f373a9245400871ddce4f28ec15d7348dcf23c440e6725cd527;Southern;2;Louisville;US;KY;40258
9372733c2943cb44d7992e2e992ba4d7907edab4dcea8708d79cf7de68598573;Western;1;Salt Lake City;US;UT;84126
e38cf327fe4593f22a632b6f3664056f41a73e0faf0e26b042a5d5f2f37ab796;Canada;0;Regina;CA;SK;S4N 4X9
9b9e65f5d29406e2384ddf50e0a518fca8fa10a42f745cc6aedf27fe2b90f318;Southern;2;Olive Branch;US;MS;38654-3703
3c7f67597982211ac18975ebaf5be86d0a7ec7b71b8c11f2fd5c25764b2aef9f;Canada;0;Oakville;CA;ON;L6J 5E6
d312649e845012977ab6340f8f871eedd5cd0dcd390e9a09af5c4895cfc63341;Southern;2;Miami;US;FL;33126
7d16918e5cbd6289c5d74b3a94389e8bbc1d5b10bb6dafcb373990041aa19f59;Northeast;3;Frederick;US;MD;21704
4d5617d7a316e9b5b79c9db42ede603344455ee2fc96fdf23e2d36f4eeef2afb;Western;1;Pomona;US;CA;91766
521649f600a9a9f2a7ef52899bc2dce10a7b9f337c0e9989ac8e4e98b9ad5cb4;Canada;0;Fort Macleod;CA;AB;T0L 0Z0
e02fb9f0b8d3c57d9f305ef6fa210f96cb907001880fcfd8c99ad210b6a3dbb6;International;5;Santiago;UK;Não informado;0
865eb4de0d71136eece76d962201b78a211094a1d5cee4a84df91f4bae5dfc29;Northeast;3;Roanoke;US;VA;24013
37fb902809ad8866949f18b47610beab94e7ba595484b7a3fe886d4a2b017822;Central;4;Bensonville;US;IL;60106-1119
853d3ede7f32d5cbcfb4374755b9b965dd0fe1f48c74e3cc269f86496d6ece20;Southern;2;Schertz;US;TX;78154-3214
e1849956cf11d1f0af16dfb9b5c514be26c26aa0cb3cb63d8575980151f6c80c;International;5;Dubai;UK;Não informado;0
055d33e4a2596159a3edc72e6db21ef5f3ada21b797d1af49925f0eef5ea1e14;Southern;2;Dallas;US;TX;75226
16d7083e611f14b13903ac1325baf6274cdc1aad127df709fdf54f25be94f47b;International;5;N-0598 Oslo;IR;Não informado;0
eb207fed0082b0d4a256a75be8582ecb84dce74a3a27b81c4fe3ecd2319cfe91;Southern;2;Fort Smith;US;AR;72902-0849
b20aafa5fd3352159e020d44c4c09f774ca5a16e62c8eba5b49ae91ee1b3e56b;Central;4;Pontiac;US;MI;48341
3aa947c29a33af08c9f90f9d0f76f82d5535e485350c11041bd56acd52c71d98;Central;4;Morton;US;IL;61550-0474
e6be9c411af06e8e9984c8f76d10327301f2491a7a9a68c9f6525e80ed81c372;Western;1;Cypress;US;CA;90630
32cbf152e55efb0be07ff0c3b513ce9c3abfe7270a29be41a517036ad088e95d;Central;4;Troy;US;MI;48083
5952d23bd26aab3a96e2328d28aed46aff8a505c4a3f80babfc8a4e15fe5d297;Southern;2;Jacksonville;US;FL;32241-3017
2a59ff3e3958ad151832d08baf1e7531ca8d65e94050078dfdf679ff5f49305e;Canada;0;Calgary;CA;AB;T2J 4L3
4c11cae3b0e4fd0edd971880c5798fead213e2ea21d5624fe00eb52b9aa82a54;Central;4;Aurora;US;IL;60507-2060
938932257ff706742a043647c1536ca1d7b4129b69586e3347467c2aa7c9e618;Central;4;Eagan;US;MN;55121
ef040198bc33629b45fe4e1b4066390c02828cb646293f79390b0df711e877c7;Central;4;Poplar Bluff;US;MO;63901
c1a368207356c7f9f9faac0180e2b300bfd212a87bd70e3a77174eac4a4477e3;Southern;2;Savannah;US;GA;31403
c061586abc66016ee23547d32aebd6685d2175a727b437f7b337b78af7985ae2;Southern;2;Beaumont;US;TX;77704
801a40347ba3651a648c4e6b466a8a8cbcf75ac76437fa6e22a710bb3aceda3a;Western;1;Beaverton;US;OR;97008
f0d9357044a98d924fcaef47ae896b4128ae4d983467f540f2c3e172b700ca88;Western;1;Sacramento;US;CA;95821
62459dc6775d6b166d9ad0320cd52b473d6a2f6c9a6d3dbd9233f282cf1bedd0;Central;4;Grand Rapids;US;MI;49508
cf0521382c9f2d1d2a1cc3ce793f7d1572ece0188c4e9675a367baf91fc654c4;Southern;2;Okolona;US;MS;38860
2e9f1278dab61f807ed38df69b1ce4c6419c09d47ebb6013743959b8b0d7ecc5;Southern;2;Dallas;US;TX;75238
aa9d79d60d1e3a522f90b5587e3bac6737d3fb5d1a52f67b4a2ec91ab202b07c;Canada;0;Valcourt;CA;QU;J0E 2L0
51c4775c080d5e8a3d9c2d10156d541434a8aaeab9fc5c828cbe4ea33e34d2dd;Western;1;Hillsboro;US;OR;97123
525b8b1d864a21c3ded6f0afa15f50ef6f65dcf5c8136c4c8a923e1dae58f7ec;International;5;00-394 Warsaw;UK;Não informado;0
0d5581479d82a4b31997453a49e788f9033bb764fbbde39dfecbb76a3b767ca3;Western;1;Casper;US;WY;82604
2befd1778b6cca560a20c4e23ee8fddf67d41dd4e03cad9ff527ebabd93c94ad;Western;1;Milwaukie;US;OR;97222
469a56f35b9106e350164557713c238963762e9debecb6cbf14601547fc85590;Central;4;Joliet;US;IL;60435
5ae58a8659162d31ccdf7b70ddf5497e35647ba2c3853b2dbcb9c03438cc48ba;Central;4;Overland Park;US;KS;66282-2990
99e8632f00d9ae45b05edee5095acb2dcd68ad100980a942bd1b49d02ef9fba8;Western;1;Prineville;US;OR;97754
adee934516c65f70e0b23cbb8f223e37373a3b1f66fd3acfce00bdd348ddc9ff;Southern;2;Jackson;US;MS;39213
85da4083e55b23d323a56761dc54fe9afbeb9b67b66053c1d46321189e5fbf6c;Canada;0;Anjou;CA;QU;H1V 1R4
3d7e024d7f04f54a37aa12992ceddaf8316181aa9e9e6a99d9a80448442ce2b2;Southern;2;Tupelo;US;MS;38803-2187
6d1bb20fd23760b38be019a2bbbb2a086e4641f6aa812fb063b694bf403f0f89;Southern;2;Houston;US;TX;77081
ad8277e252c389c6a11bb2ccdb139ec4da0ef396e5d9d6db09d85c71726454c0;Central;4;Valparaiso;US;IN;46385
eb0a8a197ec7e6d8c922df6b3d88fc8a52e1e726058c2244b986c0570ce010b4;Western;1;Libby;US;MT;59923
fb77a4ac055049119827278fdac0cc8a194f6d21600d7b20a6f30e4f6b5155a0;Southern;2;Birmingham;US;AL;35210
9ca87a94402d89e08b2eac50fa5e19895f4b45d8a68405ff4cb79dc8ecc70772;Central;4;Ottawa;US;KS;66067-3805
615342021c5ee532698754dc64fca4f9c57aecd96cc92e7361bf03ba0290975b;Southern;2;New Orleans;US;LA;70181
95ee1bb1b6f68be666e11c78f2fb7107f1cf63c99b62d5a923ba69491fdeea67;Central;4;Evansville;US;IN;47716-5364
44c9c96ec86601052762b08bd259d51b1c7e82735de894ab19feea79afe724d8;International;5;Carcas;UK;Não informado;0
247c5ed289531d282735d17ec3fe895a4ac20f115deb62561030451296555b30;Central;4;Mentor;US;OH;44060
f8a2dbe685af255ad391d6804c417b9cd26859e95fe282a8b69baffeb3043d5e;Western;1;Clackamas;US;OR;97015
168eb51cc94765889e4ad9a12ee16b8471fa17a34aba7aeea864203fbecf0145;Central;4;Newport;US;MI;O
a914fc4fc72788a3d1e75f4c726b68c5357e15f19d6615b3b13c62590722891c;Southern;2;San Antonio;US;TX;78216
6dcd5df2c6e5b4f37dde68561eff7e1cc27e4bd013a130c4bf5518d0280602c9;Southern;2;Houston;US;TX;77092
3823391f1d514a719df68bb5e77a2a73d2ef133d1d2ff56ebf36ce1b2fd55dd1;Canada;0;Winnepeg;CA;MB;R2X 2X9
7fb8f89f9c8ad43a60a32cd821fe711f9c0596e20122f742336d011e3e5a237c;Southern;2;Pearl;US;MS;39209
0ced93c86e30fd0b29e424ec5342d19cf0b7249a62cd901bb8b609219bae5be0;International;5;Sollinge Molle;UK;Não informado;0
564b540f0198330718f573c1fbafea53d0bc155882dbb8a878aa065d5e48d574;Western;1;Wheatridge;US;CO;80033
b6c5a42f3e9ee0bb64760c3c0a831b8bd7761d1af5dce94720f0dc54fe7a2490;Southern;2;Oklahoma City;US;OK;73128
f770dc76bbaf41dbc800dbc608ab833c5748444b14776dac54cdfb7ad625cdbc;International;5;Kilsyth;UK;Não informado;3136
a98f5f6c9a9f4ff622be4929baf12ec6294edefba4d27c64be7d932b81d7aa11;Southern;2;Tulsa;US;OK;74115
c3438a453085adb6e980503b752d586d8543fb24477ed8cb49980e3afac147a8;Southern;2;Saginaw;US;AL;35137
c665eba74382083063108717d3c4c9c7a1586e9897062886f60e61ec6773134b;Northeast;3;Stewartsville;US;NJ;8886
d087d193c1c3da3508f69d9fb4cc379017c138047c16ed76d3a0824ee02f0536;Southern;2;Cramerton;US;NC;28032
b5750d6ebc7ee9181cc65fe9a86ad0b619bffdee4a51b535f57a8e2004b9d9c5;Southern;2;Clemson;US;SC;29633
924257715e46aa41310045e8e9c278f4f516ddc7d7bfc22796b6d03e175527f9;Central;4;Joliet;US;IL;60432
2d1631ec242c88041291be1bb17d472e223a28da2b713746059cca504a8e15e7;International;5;Jeddah;AU;Não informado;21424
be6717705b91f2c6ae69e5799945dcecc786034f85ea4bcc80041dd6c8db6ec7;Canada;0;Edmonton;CA;AB;T5V 1C7
e7719dbcfd34bae4b73cbcb93fbed83be6a65a96fae523fc846a6c20f1b429f1;Northeast;3;Roanoke;US;VA;24001
2360338d56691cc90bc7dbac83903ea32ce4afff1190ba676a1367b59c2067ed;International;5;Não informado;UK;Não informado;0
f55a1b3baf94e73e918f0e8472ac5b759104fafd2a17e81ca53d4ed04484355e;Canada;0;Beamsville;CA;ON;L0R 1B0
0ac2e612c19821e350879c0864fb9cc1cb74088c4c04dadaa5ff6e314b00a772;International;5;Industriestrasse 17;UK;Não informado;0
d78ea2c070f0f94197b548150be133d6d364f88e896ee2ec3a90949250e09e7b;Western;1;Anchorage;US;AK;99518
3f4ff3b32cf8f81eb3c773cfe2dae06eac7e176391cf2e7d87d041e26268e66b;International;5;Madrid;UK;Não informado;28006
396b634f19b72c0707fe2ec3c640a534c480ebe7bb4026e30890bf0ef3a4ccea;Central;4;Attica;US;IN;47918
c496925053b600099c175d72d71d56608b5707bb82068f60808fea22930bd115;International;5;Quito;UK;Não informado;0
c9f4aea7c442ab9012fcb7385d3d6bed1542fcd1fb6f4a3cb1c80b16d34f709f;Canada;0;Surrey;CA;BC;V4N 3P8
ad714de56f593c3b9b78e032ee40dfbd621a813463d626ed8f60bf9bfa80d621;International;5;FIN 00710;UK;Não informado;710
8b6e4d1be8f98d8882b426e4ca448b0f86933d8914ca97a5b2742abb48441802;Southern;2;Charlotte;US;NC;28213
1fdccc43fcfca168e4274ad201c5eec7761fb07342387dbc9443a15888179e63;International;5;Cali;UK;Não informado;0
16632349ca26b4cec09c55e2d154ed90b9a455a9fd25a76612222a598e28370f;Western;1;Billings;US;MT;59101
8e38c1756270c529ef422e8c119918baec02d5de60b109554c9937aed8d85891;Western;1;Tuscon;US;AZ;85713
0b0c2d74d3b05541208c28d965f2869e5254e322f8b3072acd7024bce9741054;Central;4;Plainfield;US;IN;46168-0600
55a025a305d965f63d656ea51882ce2b49fb88d7330a918da46f0861311edcc0;Central;4;Kansas City;US;MO;64139-1538
bf314f71f221ba05fcd35cfa9367abe0c8d58b140bfdac7008b62100e3cc2e0e;International;5;Istanbul;AU;Não informado;80090
1b0f3e7e5662d865373bc71f2e452f128f91abfa720f21c06b453ab6b4724897;Southern;2;Brookhaven;US;MS;39601
09379e4119aaa5d8f0495dd559037d43f0f8838cd9acbc20b94b8d9a777109d6;Western;1;Fort Collins;US;CO;80524
9f21c2197d6f739e7ba6a241cc79c856a605a622604dd7dc981860b74bd9804b;Southern;2;Cleveland;US;MS;38732-0899
706aaac0ec1ca3e030b0091896c89300c79f930350b57218ff038c807c9a82e0;Southern;2;Houston;US;TX;77061
801431957b1012afe89b7150896802e12e87c2a8e49f61103959b7452c145eaf;Western;1;San Diego;US;CA;92102
a1b9e044f2f8b23d7fdbe530617a3819adaa09655c188ad41f338906b0fad6d6;Western;1;Aurora;US;OR;97002
105f300ec1325930100cdb2c762f02c77ad6b8989f0c1458c5b8d86813ba2be3;Canada;0;Surrey;CA;BC;V3T 4W2
a8bebcb8409ead45d9c33fb154017580d93a2e8d01537897c71c6a708831225e;Canada;0;Mississauga;CA;ON;L4W 1T7
683146fee18dba064f38b4d01ac3827b6531420532d35d3fc9513e89ceff35bd;Central;4;Sidney;US;NE;69160
fe7a57ac9f5fd123eddccf53e2841d367bd9ada215907f1b52c01a1a3844247c;International;5;Lighthorne Warwick;UK;Não informado;CV35 ORG
42aa317a683f96d88f01bf0ab8676f28c3a2261dfbda43cb9a10396b6fa2619e;Northeast;3;North Hampton;US;NH;3862
68f22cb51d8b1131e85550b91daec10044f812bc696091296a0c93f804ccf88a;Southern;2;Houston;US;TX;77075
b4bd83bea8c7d7956163ed01bbd973e2afa41142f57b146651120c2204805a30;International;5;Não informado;Não informado;Não informado;0
3b67a31fe2823a2b2c3fe85cd5d0f178b1389c43d3dd780a3d2b6593db91d3b0;Central;4;Garner;US;IA;50438
31afb05d6eb6915253f954f4eee7fe6c83ac0e62c9d189092d6a26ae167355c9;Western;1;Gardena;US;CA;90248
4739858524a094a7a57df4c58fe82cef722815e1c990db9422f204efa591f6f9;International;5;Taipei;AU;Não informado;104
613a705307c6c629df94d6622721944fd62cedc96cbed30ca37df8fcfb585649;Northeast;3;Mechanicsville;US;VA;23111
d9fc83bdf39120106aa89c6a3245d75f751f3e9db2316d7e7724ae52017620dc;Central;4;Flint;US;MI;48507
9e64354ddf71161ad5f5f074d63e5c088425f863e43e77f1378d9db2016bedc2;Canada;0;Edmonton;CA;AB;T6E 5V2
079b3ff3a957e69f169d42c9e3df11ead99d737a463cdd8610efac326bdc9c20;Western;1;Oakland;US;CA;94621
6babbf4cfd2bced3837bf3dbf89b5be149ca2d73b0e8f15c6757b80fcd7ee669;Southern;2;Goodlettsville;US;TN;37072
d8b1a16738f2e1fc93d87ddb8a3fb6211724ed7669d1219af238e23d18e7fe2e;Western;1;Ft Collins;US;CO;80524
616e63e26e2b0a50648616b5bb5984f9208c68e46850ff57e37c351852c36bc4;Northeast;3;Lewiston;US;ME;4240
8a5ea51d01eacd33bc77e58995d7f1bf81fa9d812b8d1366b754f32efdd7e789;Central;4;Middlebury;US;IN;46540
a5570ffe43edf7c11f7d4ef2c7272ab06ae2dd9723056fcdf407c78cdd061411;Central;4;Kansas City;US;KS;66105
9cf996ae51d8afe11281cf9e5606cdb02a7a6646ff6a571eb4e13ba9262945ee;Northeast;3;Exeter;US;PA;18643
0777c5d272e70f78ab8c5470155592e2295921df6b0fae27a68eb4edf343713e;Central;4;Des Moines;US;IA;50316-0283
ae842fa76ac11e74815e062ced8be422dd056a03fc62ef23bce9f03e07575329;Western;1;Phoenix;US;AZ;85036
a8842878b335591c1d8f0498efe2c459fbb096eb779c24534f8e31b6417667fa;Western;1;Albany;US;OR;97321
329f809ca7d181fca163aa419d0cc248f5646b878219146a57571114d7bc6f02;Southern;2;Smyrna;US;TN;37167
1da0c0d2c02b612e8147a0d9e010a2d98532f7b5f8c91adad7c28cc508dfb237;Central;4;Kalamazoo;US;MI;49007
1a5100015f0bca04764f07e50ead9d3e1ace25d67b105c6c7ab2dc15d6da9576;International;5;Beijing 100088;UK;Não informado;0
6d3ec34406275d416257453f47d1aacb28244dbddc64c9fc3fc27c7b846e4c73;Canada;0;Mississauga;CA;ON;L4V 1B3
10fd21951c0c41d75135af9f90ab005ea3b3f0cd9dd49f240fb80f4afb22e2a3;Central;4;Brookfield;US;WI;53008
f1bc822cad5659b15fb4b206dd80884564630348c8b076128113a905e2e18423;Central;4;Elkhart;US;IN;46516
d7b19790d4c19716c28c6a3a9b6eb8b70c20399999062ae3e5f4633cd7fe9c35;Canada;0;Boucherville;CA;QU;J4B 7K1
cdf55e5080d842268dd4485c9a56d310175bf838753b651ea2950e97ebf0f0c0;Western;1;Kent;US;WA;98032
00ecaa7b9c71371b3dd4b361babb260c1e8289ca9fa69318e7f521907f309ff8;Western;1;Spokane;US;WA;99213-3056
9e48ccebfb4912b7fcdbd4c1ba8e38d2a96da39162127906bc16f94eb7cd60cf;Southern;2;Fort Worth;US;TX;76177
06b0f082a2616f4d125eeeeaea40e684c80e3e437d4444245607282602bffa2e;Western;1;El Cajon;US;CA;92020
3c6ccd71022f01f3d225b5d9e3b5dfa1b39a352233f00b7625c7519253a799d3;Southern;2;Ormond Beach;US;FL;32176
734aaf43fb0d11f7de53bba0ec2acfdcc1f1c4ca66495653fe993c2cd048b4b9;Northeast;3;Wrightsville;US;PA;17368
a52d1be10d4a79a5ffed998a18ece5277fb6da97c409830afd7d834b58b01ac0;Canada;0;Calgary;CA;AB;T2H 0N3
031b8902952018ebf45a86a2a0940f46f4c979adf912cb1ffbf9bd373ba3a263;Southern;2;Little Rock;US;AR;72209
e916e13a177cd09762cc41015d8b6d6ae36ce68fcab4b165e923f9a2b2eca26d;Southern;2;Orlando;US;FL;32808
0732a3e2ab16638be0a7ed7eae6b87cf7ebc2d7d26fb23e102537f03eb86b757;Canada;0;Moncton;CA;NB;E1E 1H5
08354eea830d4c77015efe66c1368b161ca21226d86c33fd872485faf10b291c;Central;4;Canton;US;OH;44711-8844
08d802855f887a36198f83c2c384d25e766b8edb0df3cc8549f6e4cd65bbda61;Central;4;Livonia;US;MI;48153-7940
8ecb8f4fa3bbc7e24ccabec8dc143548bd6beea8c99406319d5cd65e831fed69;International;5;Georgetown;AU;Não informado;0
efb2566f28fb59ca64f88cae1b01c1a930d78a28e5649e8a6f82085efd4ecee1;Southern;2;Miami;US;FL;33147
c56fef2c1b5d7283bcb3f5c6cec824096c2cf4368f9fa993cb3a11a36b593c18;Canada;0;Ingersoll;CA;ON;N5C 4A6
253cc65ebf5f76c77f4b36d0777cd6a9da03c0bbeff50ef402d0747dcd63b698;Central;4;Milwaukie;US;WI;53209
1a6df7a15889b750ee083ccaa32200f4416d34d16e2c7898425a6b00cbd52b95;International;5;112 Reyjavik;AU;Não informado;0
1c8e9c42f2311efa9069258a6c0885a8acb25738cc845e395577c43a4d3c0f12;International;5;Furstentum;AU;Não informado;0
7b762a2b239ebad262dbf5152173cca3f9042995327e04d818537c362dfc251c;Northeast;3;Shady Grove;US;PA;17256-0021
cffcc7aae1c4de3741cb9ddfa5c3ebd922b731c386659f8bb5f7609868542c82;Southern;2;Pine Bluff;US;AR;71611-7647
ff8984da2239f534d3a4d219843b68babb8e22e58284e3f5a0f15b46942f80c8;International;5;Jakarta Utara;AU;Não informado;0
351d70215d4b4e95f8d1b98d80c5541a4caa4f917b0f343238d78bb76bcc7f13;Central;4;Chicago;US;IL;60609
10e3c8bd09838df91f3cc50cc53dfb42c021f1ea474b8666ce85de110f07c72c;Northeast;3;Salem;US;MA;1970
b80731d06416a29df50ef1b9884f7cb62fe2bcb1e48baeb7101a24909a8859a4;Central;4;Hammond;US;IN;46323
ad7b6dfb468724372a4356ba07a568274ee8d168539b5f4c0bcfdc8f2f9f7263;International;5;Seocho-GU;AU;Não informado;137-938
cb655fc0e4cea24a36abf2fbb4cb12f2b748cbf97033e5e4158bef8667f0a6f4;Northeast;3;Richmond;US;VA;23224
09b74a44e5c8b191c06a13f3842236ac0fc99e465e6c704a45402c9bff5160b3;Canada;0;Burnaby;CA;BC;V2X 3K6
971d33c038e1e6b3e2be118b9231d316502fdd8bb27357938c010cd062550790;Northeast;3;Mercer;US;PA;16137
914de37c513376181294e59453f8ac0b8fb5470ba88934228d741e9e10d06855;Northeast;3;Framingham;US;MA;1702
f80b1294473d7cc0087dfffe8c7ef82390ee833f27cbea8c1201a986f6220d4a;Western;1;Placentia;US;CA;92670
f1ae673dbdb7d95b39818f6abaaa54e387181962080a85131cbda85331d0850d;Western;1;Trinity Center;US;CA;96091
7396987d15f81aa9a18f794e17a9839c47c1d79ddfdeb30cc8ec740a6e214b7f;Southern;2;Norcross;US;GA;30093
cc0ecbf42588e9bac61eded73b3d02273ed4e3a74313c20653f6d22d1e530e2f;Northeast;3;Mechanicsburg;US;PA;17055
16c51a2f6df44fe768b0266d1351f321797bc5e02d06322625fd368c882a4a39;Canada;0;Surrey;CA;BC;V3S-2A7
04ed83ddc266658c49031e2a1a3974271ec4145c63defca67f4d37635bb923cf;Western;1;Brea;US;CA;92621
fcc6a0884b9726a74f018cc8ef6e6267ecd6f367d2d3e384d8bec7c3aac4cfaa;Southern;2;Ocala;US;FL;34475
6ced0ab482c567b9d2b6755339d8d264a027f0630db9073fe89e471e24f94840;Western;1;Auburn;US;WA;98001
e6ad28224f44353ef79b330fb28321ee81de309106fa85ee6435b160f76b4f70;Southern;2;Okarche;US;OK;73762
6c6207f58d20d11761ef428e862a7c85c69e5428ec0a10d15742df59e3791b93;Central;4;Elkhart;US;IN;46514
e5aba426d68cd5b5c31852fd39e98ed325c18955ceab7231f7e58af800adf949;International;5;Jeddah;AU;Não informado;11443
c7e7a21290c58a42dc9c2843ae4fa6fdad248e6f7763be1200c8c76e1213f4eb;Western;1;Hayward;US;CA;94541
a71d004942ceb30479c4fdb1fd60e3b6421a06de4c7c11bff6735fa9315c2170;Southern;2;Laurel;US;MS;39440
04b457c4461d32d83b973ba100100b06b6dc7607ea881d5e995d73f701efda2d;Western;1;Yakama;US;WA;98901
80e614a38a9722a86099e8edf250b607e314cf980baaa7f345e6dd62b26a7422;Southern;2;Johnson City;US;TN;37602-5418
c0fbb02ea377677c20cc49eb0c6c367f7ec2716c33d219dcbae3622741d9c202;Western;1;Benicia;US;CA;94510-1020
4bbb14505bf5bc3d096c0273f9b0fdc9b6f279fa711eedcad1249cb7edcdc3db;Southern;2;Elizabethtown;US;KY;42702-2143
d779bcb93ce34ff36e422065274e3a2be4b20c0c92e4438a3937e4be4f36919c;Central;4;Eau Claire;US;WI;54701
7072518bb414ee2369dbc01b0f914829a2f0374ec14975b9f3963d213acd99f5;Central;4;MOLINE;US;IL;61266-8808
7f5bab0d9e7e549092b1050655f0671624800851cc4d55392056d68f4c7e471c;Western;1;Huntington Beach;US;CA;92647
2bcf189427316acb0be21fd67c1d844e553f860d5f2f0a1edc656c0cdeb0c780;Southern;2;Te Rapa Hamilton;US;MS;0
7b32ec2001f9a0470215cad2ebb586398f89a0eee6ad2476388e39f601b70db6;Southern;2;Montgomery;US;AL;36117
5b884e27433e88741cacbbbfecc8ceee62dfd0091a8934217ee4ca444170ac4f;Central;4;Mitchell;US;SD;57301-7064
e0fcaa5711cc6d5647f169822666ea3f58760225eba4b4f15b55f031ae03c898;Central;4;Lansing;US;MI;48906
d08491bb00244576d3079cf0ab72c7c6621ff87885df40ed9feee6cd4e147246;Southern;2;Little Rock;US;AR;72219
6baab2d82877484a4109ac0bbad18e9ac0d3cc8754b075b3663795a7e0c4b2d0;Western;1;Puyallup;US;WA;98373
5fc425cf31883eff7295a7a7ed8b04b45abf8ffbcbb75fdb4d6e34a763323149;International;5;D 95326 Kulmbach;UK;Não informado;0
bfedc3c6726d9b4ed4a23844f882ebdc4b3080615fbd8fa82f3c65b493d73536;Central;4;Monroe;US;WI;53566
943c64879e4c2df79778f217caf5f52213e5b5564d3ef5925d25a138d250b807;Canada;0;Toronto;CA;ON;M2H 3B4
bdb3e683ed3ff4d7d63b245a07413d4d71768225783007e6828fc934a29ed52e;Western;1;Corona;US;CA;92880
414da883de8cc9405774d87f1362890414d87243e57253454799aa9989ac7846;Southern;2;Tulsa;US;OK;74158-2510
dfa364dc94a01409e6e53643eff52416042b4044bae25525d1c68c296857945a;Central;4;Saginaw;US;MI;48606
256f01a75fb2bb997c0e6dd656ac2e33fe0c96730545a9c86544d76c77f32908;Western;1;Pocatello;US;ID;83201
cf849b48c7c629cef0213fe31d688acbf7e711f919c5b4c2e6dd5fc5ab4d4bde;Northeast;3;Hermitage;US;PA;16148
e1dbf53e355c9481d787ae3a22bed7c8adce1d21d37dcea46e2c804c31944f40;Central;4;Chippewa Falls;US;WI;54729
8f37adbaa889f04a1fad48ef5889074e856caa84a8899311e4a6bd43bd537d70;Central;4;Cincinnati;US;OH;45241
4fda966e65cb213862c5c96d3ece58695d3c71d1ef2c67fc44f912db0a2f380f;Central;4;Sun Prairie;US;WI;53590-2553
918d706ed7adf3fe60608a065881af308fed2baa5078c5fb44ea714b1af5e494;Western;1;Missoula;US;MT;59806
7e5718533af55610be95a0d8ac39ea70c344d3c533892cb04a79da8fc8be6c90;Southern;2;Tulsa;US;OK;74107
08ba23f4d5d8b92835f5c1ce4e7b8b69cd2083cd625b03acddb62769cb36faf2;Southern;2;Mobile;US;AL;36619
9f864d607bea0ed1ffde1129bc77e9cda55aaa34c225bb0d3bdd0820b68bf9ee;International;5;Bremen;UK;Não informado;D-28390
6637a4248ae71de370acf7868ac37df0fc0b1d6b8209d9c9dd4f2303a1e1044a;Northeast;3;Fairview;US;NJ;7022
ff8f87a37565213fd3450be7f97b23d150a3f8244876a3ea7d410d67271b0825;Southern;2;Hialeah;US;FL;33014
f2c46c87f182f0e70b7d3cefe556074f7d2bc0a732ae33ec8049d28baaf246e5;International;5;La Paz;UK;Não informado;0
d617e5feaaa9cc54554dc387c9f96fc8f01c01092fe62ff98929369f624c367e;Southern;2;Irving;US;TX;75060
a522eec9a5ac43715133066ceacaaa04ca35d7562a520828b0d96f066587574e;Western;1;Maxwell;US;CA;95955
a02d3eb84a377e415d08fe48a4ead06432cabb22236a467e1b4e672ea76f7540;Southern;2;Atlanta;US;GA;30325-0858
e998e54e6359174591e9d71e8c53e7b4b0a641837984802fef6faac6c903fd8b;Northeast;3;Glen Burnie;US;MD;21061
5758ed66ed3394fb8feb686c74224c3cdaa5adb27eeb79ec9fc0cd96ed8b7d48;Southern;2;Columbia;US;SC;29202
d70a6d0f4f59957a7c37ea7511d5986339c5cca58362a63f73fdc40dc198ec4a;Central;4;Cape Girardeau;US;MO;63702
268d98d6617a4493eee3e724d6dc05a0ad7bc5ff184ed5eb5450b77f76567a4c;Western;1;Rexburg;US;ID;83440
4bfe85f9fed1acd31614f40a6c511891317f2ea023e62408b7826d51733e2e03;Northeast;3;West Sayville;US;NY;11796
3db925730c23a77257b36979fc6938705a102af0faa4f5f0bce2e5749531da1b;International;5;West Midlands;UK;Não informado;DY9 8HS
a9340fa826f33aa744b8285f7fb57620f5be05025318b8e1137f138fb85ec495;Central;4;Livonia;US;MI;48150
7733146e7e18dfdb13eb8f0d475de75c3e0a9e602a799aea67e0526ee735d194;Western;1;Irvine;US;CA;92618
742460cedbce756cc05cb162754ab519b3659079b0490d1097cfe9693ce182bc;Southern;2;Greenwood;US;MS;38930
3c8feb6f1add5d96e9da584e3fea96228502de7597310128736b252221e04070;Central;4;Grand Rapids;US;MN;55744
54d1dddead5c870c23b59571eb6b648f347e5f7eb3f5240afeb27132f4089051;Southern;2;Longview;US;TX;75608
5f6bcd72922ffea1ea4a4ad5003b56035180bc6bafb7dbf34350c44daa7d984d;Northeast;3;Bedford Hills;US;NY;10507
1642fc87d1f4b42634ed7bb80d8a4ca37a30aa7b89e9ef11f5faf5b82ea0d684;Southern;2;Brownsville;US;TX;78521
fabd807c0d0700be814b2ed2e79f8723b0a2154cf9c38983188b8ba1cc883574;Central;4;Pontiac;US;MI;48340-2956
8046e8e77c5c9c7bdcba6b526518f74388d7fd4f781bb981563fd9c95318bc73;Central;4;Canton;US;OH;44708
b239cb07dca99a93f585450b50c524fbdf45ffe046a20930425fab34d9f339c5;International;5;Quezon City;IR;Não informado;1114
1e44a0a986bcd3ecdbb168de116fa2c2f774a46ac95be40d78c2a571cab81958;Canada;0;Montreal;CA;QU;H1N 2B3
cf862438227aa4d970a9351700c446ff0c46973b479257c34d1889f9924e994c;Southern;2;Mebane;US;NC;27302
cda82d502ebb94abe7b8e10ca37cc5c1b16b86f202420c4dcd6ea4150e0f577f;Northeast;3;Waldorf;US;MD;20601
8e9849f570d88158ba5dbb4f1df1cbbc604d8fed35a45c0ff05b32aa013d7f44;Southern;2;Gretna;US;LA;70056
172cfa7dcf5391393ecb0c124d846cf983de26c80b3342d5fee403d3700f64dd;Southern;2;Odessa;US;TX;79764
bf4dbd1d3a488a29aa11812da10f04a7d64c969e9ef4136dbd6147a7012bc09a;Southern;2;Ooltewah;US;TN;37363
e4b730bfe0d6f0bff492818d17c2aa86366ca2b0192667cad750c6f01ca6ce7c;Western;1;West Jordan;US;UT;84084
badc9aa8f0b625e388a123cc2641d6f65a1f75a9db81001c129bc07eb6c0e5f1;Central;4;Chicago;US;IL;60680
834fa6fe88de6decdcbd77a9d19f2077a38a1ce099e7c65995d33057c7fc824f;Northeast;3;West Point;US;PA;19486
1a50ac42472ef4b78c8133213df005af16815b8788dbab2471f0030cd56f1b8a;International;5;ZI 1 Ducos;IR;Não informado;0
b771bf82d854fe97857d242e8ef3f6a3f4cf26f9cfb1dc2c3bb37d4d47009b48;Northeast;3;Nesquehoning;US;PA;18240
3213a1b057440f55c16f2a7ff5166dec78c1ced5779ac1f0ccfc096ed0eee2dc;Central;4;Waterville;US;KS;66548
35d0dce5485bdc76b9bfead57e2af0cad700513970c6cc7bb0ae9e79e358d9fc;Western;1;Tulare;US;CA;93274
39177b608132dfcacbdb3ffebe9e5cfa340b1666fbd2831dda68c9b224c6c8eb;Canada;0;Winnepeg;CA;MB;R2R 1V2
5d136789d5a02432446e5fdcc00c26a2d39885ed1083177259a3cb83e815f91a;Northeast;3;Manassas;US;VA;20109
3885ddf9b8378d9e6e8d98b99f8413cc5d4f4ffd04c2d77d6861748f5841c7e5;International;5;Johannesburg;AU;Não informado;0
3fdbfb17b9a5de92962939889cb9e763bb5e3029e782182547230fb41eca5f68;Southern;2;El Paso;US;TX;79925
74acd8fad02e90cffe9551229b54f849679dd3f6c4e2c6471cfe92e3ccf89b71;Western;1;Modesto;US;CA;95351
6132e1b96842819e65249904142640862d360275aa4ad39d880299293a69794d;Central;4;St Louis;US;MO;63109
7d288f57f78d8d35c4418ce682c62ab6be7c682b78d85dd2a0d9bc27a782e5ab;Western;1;Buffdale;US;UT;84065
f514a043ac14794c883d604ad4b8771769e891922c2bb3ba57100e21bb171d94;Southern;2;Irving;US;TX;75016-7728
96b3819adeab8fee65bffcb69fbd293fd9b7e5cb121d89c1d9f961e33c31a0bb;Central;4;Coldwater;US;MI;49036
7957ab202366cc6595bb09014fdbbe5d011086ae2858fb8babf059374d86739c;Southern;2;Duluth;US;GA;30096
eacc7aebe292c4b7ca5e896e6bb3c07afbd2f9e710d3876689219d1e2d2ff518;Canada;0;Edmonton;CA;AB;T6E 0B2
9e526e2707d92e6c2e35d9338312a80273738797bd1aa3a95f470aa9cb0c5a61;Central;4;Independence;US;MO;64055
183e481e204589dff45362fc8e5cc107ff2e60a0e9159da6b50a85af958e5ef1;Southern;2;Shreveport;US;LA;71130
a3761e337e793f0e15c81af7527863d078ac1ad05555a465ed994ebd4c11f536;Central;4;Janesville;US;WI;53547-5222
06115810416153aff830565b53398223fcd1e5f4f9e2374d8a31896dcfffe6b2;Southern;2;Spring;US;TX;77388
4579088a2af6add835d3486fec476201e38cb7fdb33e46fb6d2100f917535149;Central;4;St Louis Park;US;MN;55416
92e45f85ecc4861c04320a44ac7c79c38032a25713da8e5289e73d38bfa532bf;Northeast;3;Wester Chester;US;PA;19380
2b9515958703a69eec1ad8398d772c6466299414085bc1996af0a70e104b164e;Southern;2;Miami;US;FL;33122
592f3b8d3133c6408afde030ec9d2ef56676620b96b772c5a0604ed75eb2086e;International;5;Seoul;AU;Não informado;110-793
fad36389541a3794d12211e9a5f48a52d6e076f8157e7823c1d38ec90df51b44;Central;4;Southfield;US;MI;48034
7e936a1b2643d43c85293469bdc5ef519baef6c89d3b70c440a9cbeb6e71cf24;International;5;Não informado;AU;Não informado;0
0997d96884c04c4dd30b0805661cbbe5939d296f3bbf456f7b2bf8ce6be3cee1;Central;4;Columbiana;US;OH;44408
